ONEWEB-0710             
1 55173U 23004AK  23304.74979938  .00000081  00000+0  17622-3 0  9997
2 55173  87.9247 196.5899 0001527  81.1607 278.9697 13.17646837 41239
ONEWEB-0711             
1 55174U 23004AL  23304.28585815  .00000485  00000+0  13339-2 0  9992
2 55174  87.9011 211.7802 0002445  97.7505 262.3900 13.11420397 40028
ONEWEB-0713             
1 55175U 23004AM  23304.30373779 -.00000298  00000+0 -87660-3 0  9993
2 55175  87.9013 211.7847 0002094  83.1578 276.9788 13.11410464 40017
ONEWEB-0715             
1 55176U 23004AN  23304.29886366  .00000007  00000+0 -16040-4 0  9995
2 55176  87.8995 211.7942 0002093  76.5718 283.5644 13.11409822 40058
ONEWEB-0716             
1 55177U 23004AP  23304.21191317  .00000120  00000+0  27466-3 0  9991
2 55177  87.9228 196.6945 0001821  64.3335 295.7984 13.17652101 41162
ONEWEB-0717             
1 55178U 23004AQ  23304.42285127  .00000038  00000+0  64834-4 0  9997
2 55178  87.9250 196.6091 0001922 108.0913 252.0428 13.17647654 41245
ONEWEB-0719             
1 55179U 23004AR  23304.43338733  .00000035  00000+0  56825-4 0  9999
2 55179  87.9248 196.5942 0002103  75.8915 284.2450 13.17650588 41198
ONEWEB-0530             
1 55796U 23029A   23304.50772193  .00000029  00000+0  30582-4 0  9996
2 55796  87.9664 105.5196 0001636  72.9519 287.1801 13.34121812 34459
